[{"OBJECT_NAME":"ONEWEB-0179","OBJECT_ID":"2021-031C","EPOCH":"2026-03-09T17:06:31.651776","MEAN_MOTION":13.14503091,"ECCENTRICITY":0.00017492,"INCLINATION":87.8988,"RA_OF_ASC_NODE":309.5417,"ARG_OF_PERICENTER":76.2174,"MEAN_ANOMALY":283.915,"EPHEMERIS_TYPE":0,"CLASSIFICATION_TYPE":"U","NORAD_CAT_ID":48212,"ELEMENT_SET_NO":999,"REV_AT_EPOCH":23526,"BSTAR":0.00026835726,"MEAN_MOTION_DOT":1.12e-6,"MEAN_MOTION_DDOT":0},{"OBJECT_NAME":"ATLAS CENTAUR 2 DEB","OBJECT_ID":"1963-047D","EPOCH":"2026-03-09T04:38:25.596384","MEAN_MOTION":13.74186339,"ECCENTRICITY":0.05295127,"INCLINATION":29.9206,"RA_OF_ASC_NODE":132.356,"ARG_OF_PERICENTER":27.0782,"MEAN_ANOMALY":335.6424,"EPHEMERIS_TYPE":0,"CLASSIFICATION_TYPE":"U","NORAD_CAT_ID":698,"ELEMENT_SET_NO":999,"REV_AT_EPOCH":6529,"BSTAR":0.00027417287,"MEAN_MOTION_DOT":8.01e-6,"MEAN_MOTION_DDOT":0}]
